[{"OBJECT_NAME":"ONEWEB-0391","OBJECT_ID":"2021-132C","EPOCH":"2026-03-09T21:03:44.229600","MEAN_MOTION":13.17649662,"ECCENTRICITY":0.00019766,"INCLINATION":87.9151,"RA_OF_ASC_NODE":25.5986,"ARG_OF_PERICENTER":54.8205,"MEAN_ANOMALY":305.3111,"EPHEMERIS_TYPE":0,"CLASSIFICATION_TYPE":"U","NORAD_CAT_ID":50471,"ELEMENT_SET_NO":999,"REV_AT_EPOCH":20500,"BSTAR":0.00011468789,"MEAN_MOTION_DOT":5.7e-7,"MEAN_MOTION_DDOT":0},{"OBJECT_NAME":"DELTA 1 DEB","OBJECT_ID":"1975-052LZ","EPOCH":"2026-03-09T22:38:25.486656","MEAN_MOTION":13.45203955,"ECCENTRICITY":0.02148763,"INCLINATION":99.8057,"RA_OF_ASC_NODE":240.4217,"ARG_OF_PERICENTER":312.3877,"MEAN_ANOMALY":202.8711,"EPHEMERIS_TYPE":0,"CLASSIFICATION_TYPE":"U","NORAD_CAT_ID":42640,"ELEMENT_SET_NO":999,"REV_AT_EPOCH":60270,"BSTAR":0.00085702682,"MEAN_MOTION_DOT":5.36e-6,"MEAN_MOTION_DDOT":0}]
